{
  "type": "FeatureCollection",
  "features": [
    {
      "type": "Feature",
      "properties": {
        "norad_id": 66491,
        "name": "STARLINK-35663",
        "group": "last-30-days",
        "lat": -15.600281766797709,
        "lon": -5.676696052565123,
        "alt_km": 404.1940847984006,
        "timestamp": "2025-12-07T07:31:35.085662+00:00",
        "meta_object_name": "STARLINK-35663",
        "meta_object_id": "2025-263G",
        "meta_epoch": "2025-12-07T00:00:02.000160",
        "meta_mean_motion": 15.56103927,
        "meta_eccentricity": 0.00015849,
        "meta_inclination": 42.9999,
        "meta_ra_of_asc_node": 158.7357,
        "meta_arg_of_pericenter": 268.6959,
        "meta_mean_anomaly": 336.5057,
        "meta_ephemeris_type": 0,
        "meta_classification_type": "U",
        "meta_norad_cat_id": 66491,
        "meta_element_set_no": 999,
        "meta_rev_at_epoch": 471,
        "meta_bstar": -0.031949295,
        "meta_mean_motion_dot": -0.02045405,
        "meta_mean_motion_ddot": 0,
        "tle_line1": "1 66491U 25263G   25341.00002315 -.02045405  00000+0 -31949-1 0  9998",
        "tle_line2": "2 66491  42.9999 158.7357 0001584 268.6959 336.5057 15.56103927  4719"
      },
      "geometry": {
        "type": "Point",
        "coordinates": [
          -5.676696052565123,
          -15.600281766797709
        ]
      }
    },
    {
      "type": "Feature",
      "properties": {
        "norad_id": 66492,
        "name": "STARLINK-35673",
        "group": "last-30-days",
        "lat": -16.840485302291796,
        "lon": -4.161942730330128,
        "alt_km": 404.21847584994066,
        "timestamp": "2025-12-07T07:31:35.085672+00:00",
        "meta_object_name": "STARLINK-35673",
        "meta_object_id": "2025-263H",
        "meta_epoch": "2025-12-07T00:00:02.000160",
        "meta_mean_motion": 15.56101963,
        "meta_eccentricity": 0.00016836,
        "meta_inclination": 42.9999,
        "meta_ra_of_asc_node": 158.7308,
        "meta_arg_of_pericenter": 267.5226,
        "meta_mean_anomaly": 339.5968,
        "meta_ephemeris_type": 0,
        "meta_classification_type": "U",
        "meta_norad_cat_id": 66492,
        "meta_element_set_no": 999,
        "meta_rev_at_epoch": 471,
        "meta_bstar": -0.031909687,
        "meta_mean_motion_dot": -0.0204307,
        "meta_mean_motion_ddot": 0,
        "tle_line1": "1 66492U 25263H   25341.00002315 -.02043070  00000+0 -31910-1 0  9993",
        "tle_line2": "2 66492  42.9999 158.7308 0001683 267.5226 339.5968 15.56101963  4713"
      },
      "geometry": {
        "type": "Point",
        "coordinates": [
          -4.161942730330128,
          -16.840485302291796
        ]
      }
    },
    {
      "type": "Feature",
      "properties": {
        "norad_id": 66493,
        "name": "STARLINK-35597",
        "group": "last-30-days",
        "lat": -18.072158207284783,
        "lon": -2.6240769715891856,
        "alt_km": 404.363687799676,
        "timestamp": "2025-12-07T07:31:35.085682+00:00",
        "meta_object_name": "STARLINK-35597",
        "meta_object_id": "2025-263J",
        "meta_epoch": "2025-12-07T00:00:02.000160",
        "meta_mean_motion": 15.56104323,
        "meta_eccentricity": 0.00015472,
        "meta_inclination": 43,
        "meta_ra_of_asc_node": 158.7256,
        "meta_arg_of_pericenter": 268.9866,
        "meta_mean_anomaly": 340.0497,
        "meta_ephemeris_type": 0,
        "meta_classification_type": "U",
        "meta_norad_cat_id": 66493,
        "meta_element_set_no": 999,
        "meta_rev_at_epoch": 471,
        "meta_bstar": -0.031933039,
        "meta_mean_motion_dot": -0.02044478,
        "meta_mean_motion_ddot": 0,
        "tle_line1": "1 66493U 25263J   25341.00002315 -.02044478  00000+0 -31933-1 0  9992",
        "tle_line2": "2 66493  43.0000 158.7256 0001547 268.9866 340.0497 15.56104323  4712"
      },
      "geometry": {
        "type": "Point",
        "coordinates": [
          -2.6240769715891856,
          -18.072158207284783
        ]
      }
    },
    {
      "type": "Feature",
      "properties": {
        "norad_id": 66494,
        "name": "STARLINK-35689",
        "group": "last-30-days",
        "lat": -14.35189638131897,
        "lon": -7.170250745412657,
        "alt_km": 403.85822657436984,
        "timestamp": "2025-12-07T07:31:35.085692+00:00",
        "meta_object_name": "STARLINK-35689",
        "meta_object_id": "2025-263K",
        "meta_epoch": "2025-12-07T00:00:02.000160",
        "meta_mean_motion": 15.56057353,
        "meta_eccentricity": 0.00015851,
        "meta_inclination": 42.9998,
        "meta_ra_of_asc_node": 158.7408,
        "meta_arg_of_pericenter": 255.8373,
        "meta_mean_anomaly": 347.4799,
        "meta_ephemeris_type": 0,
        "meta_classification_type": "U",
        "meta_norad_cat_id": 66494,
        "meta_element_set_no": 999,
        "meta_rev_at_epoch": 471,
        "meta_bstar": -0.031094254,
        "meta_mean_motion_dot": -0.01957005,
        "meta_mean_motion_ddot": 0,
        "tle_line1": "1 66494U 25263K   25341.00002315 -.01957005  00000+0 -31094-1 0  9999",
        "tle_line2": "2 66494  42.9998 158.7408 0001585 255.8373 347.4799 15.56057353  4712"
      },
      "geometry": {
        "type": "Point",
        "coordinates": [
          -7.170250745412657,
          -14.35189638131897
        ]
      }
    },
    {
      "type": "Feature",
      "properties": {
        "norad_id": 66495,
        "name": "STARLINK-35832",
        "group": "last-30-days",
        "lat": -19.289062698695457,
        "lon": -1.0667274192529768,
        "alt_km": 404.4626491383324,
        "timestamp": "2025-12-07T07:31:35.085704+00:00",
        "meta_object_name": "STARLINK-35832",
        "meta_object_id": "2025-263L",
        "meta_epoch": "2025-12-07T00:00:02.000160",
        "meta_mean_motion": 15.56102569,
        "meta_eccentricity": 0.00015204,
        "meta_inclination": 42.9998,
        "meta_ra_of_asc_node": 158.721,
        "meta_arg_of_pericenter": 269.522,
        "meta_mean_anomaly": 341.4331,
        "meta_ephemeris_type": 0,
        "meta_classification_type": "U",
        "meta_norad_cat_id": 66495,
        "meta_element_set_no": 999,
        "meta_rev_at_epoch": 471,
        "meta_bstar": -0.031948508,
        "meta_mean_motion_dot": -0.02045225,
        "meta_mean_motion_ddot": 0,
        "tle_line1": "1 66495U 25263L   25341.00002315 -.02045225  00000+0 -31949-1 0  9992",
        "tle_line2": "2 66495  42.9998 158.7210 0001520 269.5220 341.4331 15.56102569  4712"
      },
      "geometry": {
        "type": "Point",
        "coordinates": [
          -1.0667274192529768,
          -19.289062698695457
        ]
      }
    },
    {
      "type": "Feature",
      "properties": {
        "norad_id": 66496,
        "name": "STARLINK-35909",
        "group": "last-30-days",
        "lat": -20.492089043716714,
        "lon": 0.512619210268236,
        "alt_km": 404.5907475250806,
        "timestamp": "2025-12-07T07:31:35.085717+00:00",
        "meta_object_name": "STARLINK-35909",
        "meta_object_id": "2025-263M",
        "meta_epoch": "2025-12-07T00:00:02.000160",
        "meta_mean_motion": 15.56101303,
        "meta_eccentricity": 0.00015654,
        "meta_inclination": 43,
        "meta_ra_of_asc_node": 158.716,
        "meta_arg_of_pericenter": 273.4537,
        "meta_mean_anomaly": 339.4174,
        "meta_ephemeris_type": 0,
        "meta_classification_type": "U",
        "meta_norad_cat_id": 66496,
        "meta_element_set_no": 999,
        "meta_rev_at_epoch": 471,
        "meta_bstar": -0.031848808,
        "meta_mean_motion_dot": -0.02039465,
        "meta_mean_motion_ddot": 0,
        "tle_line1": "1 66496U 25263M   25341.00002315 -.02039465  00000+0 -31849-1 0  9991",
        "tle_line2": "2 66496  43.0000 158.7160 0001565 273.4537 339.4174 15.56101303  4714"
      },
      "geometry": {
        "type": "Point",
        "coordinates": [
          0.512619210268236,
          -20.492089043716714
        ]
      }
    },
    {
      "type": "Feature",
      "properties": {
        "norad_id": 66497,
        "name": "STARLINK-35899",
        "group": "last-30-days",
        "lat": -21.68032480497874,
        "lon": 2.1169393958685925,
        "alt_km": 404.5630320555483,
        "timestamp": "2025-12-07T07:31:35.085728+00:00",
        "meta_object_name": "STARLINK-35899",
        "meta_object_id": "2025-263N",
        "meta_epoch": "2025-12-07T00:00:02.000160",
        "meta_mean_motion": 15.56105646,
        "meta_eccentricity": 0.00016181,
        "meta_inclination": 42.9997,
        "meta_ra_of_asc_node": 158.7109,
        "meta_arg_of_pericenter": 269.8043,
        "meta_mean_anomaly": 344.9813,
        "meta_ephemeris_type": 0,
        "meta_classification_type": "U",
        "meta_norad_cat_id": 66497,
        "meta_element_set_no": 999,
        "meta_rev_at_epoch": 471,
        "meta_bstar": -0.031989531,
        "meta_mean_motion_dot": -0.02047845,
        "meta_mean_motion_ddot": 0,
        "tle_line1": "1 66497U 25263N   25341.00002315 -.02047845  00000+0 -31990-1 0  9990",
        "tle_line2": "2 66497  42.9997 158.7109 0001618 269.8043 344.9813 15.56105646  4716"
      },
      "geometry": {
        "type": "Point",
        "coordinates": [
          2.1169393958685925,
          -21.68032480497874
        ]
      }
    }
  ]
}